O3B FM5                 
1 39188U 13031A   19209.63082093 -.00000016  00000-0  00000-0 0  9997
2 39188   0.0607   5.7591 0002424 133.0009 221.2582  5.00115840111277
O3B FM4                 
1 39189U 13031B   19209.57765987 -.00000016  00000-0  00000-0 0  9991
2 39189   0.0333 359.2776 0002583 127.7967 232.9492  5.00116659111295
O3B FM2                 
1 39190U 13031C   19209.74871408 -.00000016  00000-0  00000-0 0  9998
2 39190   0.0290 354.2113 0006163  77.3705 288.4851  5.00115745111275
O3B PFM                 
1 39191U 13031D   19209.97662262 -.00000016  00000-0  00000+0 0  9999
2 39191   0.0519   5.7223 0001635  98.2508 256.0448  5.00115901111280
O3B FM3                 
1 40079U 14038A   19209.88317630 -.00000016  00000-0  00000-0 0  9991
2 40079   0.0411   0.7313 0003509 167.3553 191.9215  5.00115949 87376
O3B FM7                 
1 40080U 14038B   19209.43030850 -.00000016  00000-0  00000-0 0  9990
2 40080   0.0383 342.2805 0002068  96.1268 281.6158  5.00115111 92142
O3B FM6                 
1 40081U 14038C   19209.65583045 -.00000016  00000-0  00000-0 0  9994
2 40081   0.0402   1.5996 0002576 125.0970 233.3270  5.00115178 92138
O3B FM8                 
1 40082U 14038D   19209.70915679 -.00000016  00000-0  00000-0 0  9993
2 40082   0.0370   2.1339 0002696 123.3789 234.5122  5.00115184 92241
O3B FM10                
1 40348U 14083A   19209.73580323 -.00000016  00000-0  00000-0 0  9995
2 40348   0.0471   8.9444 0002603 117.2596 233.8200  5.00115297 84217
O3B FM11                
1 40349U 14083B   19209.74934382 -.00000016  00000-0  00000-0 0  9995
2 40349   0.0491   3.6444 0002101 109.5199 246.8577  5.00115901 84211
O3B FM12                
1 40350U 14083C   19209.81665490 -.00000016  00000-0  00000-0 0  9996
2 40350   0.0480   3.9127 0002600 117.0240 239.0886  5.00115588 84215
O3B FM9                 
1 40351U 14083D   19209.60257180 -.00000016  00000-0  00000-0 0  9997
2 40351   0.0498   2.6611 0002546 123.7534 233.6089  5.00115198 84221
DIAMOND RED             
1 42783U 17036U   19210.33851232  .00000551  00000-0  26892-4 0  9993
2 42783  97.3483 267.0439 0013953  88.8087 271.4747 15.22245217116439
DIAMOND GREEN           
1 42785U 17036W   19209.87715719  .00000511  00000-0  25147-4 0  9999
2 42785  97.3485 266.6181 0013860  90.7285 269.5539 15.22244644116431
DIAMOND BLUE            
1 42786U 17036X   19209.67911542  .00000546  00000-0  26697-4 0  9999
2 42786  97.3485 266.4224 0013699  91.5937 268.6868 15.22242403116404
LEO VANTAGE 1           
1 43113U 18004C   19209.86016688 -.00000056  00000-0 -13611-4 0  9998
2 43113  99.4264 268.8817 0005383 178.6808 181.4353 13.69843642 77729
TINTIN A                
1 43216U 18020B   19210.64175468  .00001101  00000-0  53845-4 0  9993
2 43216  97.4514 218.0674 0010776 251.1663 108.8403 15.20289372 79280
TINTIN B                
1 43217U 18020C   19209.90745052  .00001093  00000-0  53414-4 0  9995
2 43217  97.4581 217.8498 0010044 251.3626 108.6519 15.20342632 79178
O3B FM15                
1 43231U 18024A   19209.66917428 -.00000016  00000-0  00000-0 0  9990
2 43231   0.0466  13.1531 0002615 114.8127 232.0577  5.00115062 25321
O3B FM16                
1 43232U 18024B   19209.72251718 -.00000016  00000-0  00000-0 0  9991
2 43232   0.0471  18.2153 0002602 109.0655 232.7428  5.00115167 25331
O3B FM14                
1 43233U 18024C   19209.76342167 -.00000016  00000-0  00000-0 0  9995
2 43233   0.0467  20.0343 0002589 103.1032 236.8873  5.00116351 25332
O3B FM13                
1 43234U 18024D   19206.77835671 -.00000017  00000-0  00000-0 0  9992
2 43234   0.0455 349.1235 0000641 224.9294 145.9427  5.00116167 25165
O3B FM20                
1 44112U 19020A   19210.38937425 -.00000016  00000-0  00000+0 0  9995
2 44112   0.0466   8.8903 0002279 118.6926 232.4375  5.00117248  5820
O3B FM19                
1 44113U 19020B   19209.70114018 -.00000016  00000-0  00000-0 0  9996
2 44113   0.0445   9.9787 0002760 111.9726 238.0754  5.00115329  5808
O3B FM17                
1 44114U 19020C   19209.69675014 -.00000016  00000-0  00000-0 0  9993
2 44114   0.0460  10.1723 0002585 117.6890 232.1620  5.00116741  5806
O3B FM18                
1 44115U 19020D   19209.64319499 -.00000016  00000-0  00000-0 0  9991
2 44115   0.0469   8.8137 0002752 118.8951 232.3161  5.00116355  5809
